CCSDS_OMM_VERS = 2.0
CREATION_DATE  = 
ORIGINATOR     = 

OBJECT_NAME    = DELTA 2 R/B(1)
OBJECT_ID      = 1990-008B
CENTER_NAME    = EARTH
REF_FRAME      = TEME
TIME_SYSTEM    = UTC
MEAN_ELEMENT_THEORY = SGP/SGP4

EPOCH          = 2026-02-16T01:13:23.888352
MEAN_MOTION    = 15.52946842
ECCENTRICITY   = .00905163
INCLINATION    = 35.6054
RA_OF_ASC_NODE = 316.5284
ARG_OF_PERICENTER = 56.5081
MEAN_ANOMALY   = 304.4266

EPHEMERIS_TYPE = 0
CLASSIFICATION_TYPE = U
NORAD_CAT_ID   = 20453
ELEMENT_SET_NO = 999
REV_AT_EPOCH   = 92276
BSTAR          = .92904788E-3
MEAN_MOTION_DOT = .71954E-3
MEAN_MOTION_DDOT = 0

CCSDS_OMM_VERS = 2.0
CREATION_DATE  = 
ORIGINATOR     = 

OBJECT_NAME    = COSMOS 2058
OBJECT_ID      = 1990-010A
CENTER_NAME    = EARTH
REF_FRAME      = TEME
TIME_SYSTEM    = UTC
MEAN_ELEMENT_THEORY = SGP/SGP4

EPOCH          = 2026-02-16T12:37:24.558816
MEAN_MOTION    = 15.11122327
ECCENTRICITY   = .00112242
INCLINATION    = 82.4654
RA_OF_ASC_NODE = 68.2776
ARG_OF_PERICENTER = 55.0859
MEAN_ANOMALY   = 305.1424

EPHEMERIS_TYPE = 0
CLASSIFICATION_TYPE = U
NORAD_CAT_ID   = 20465
ELEMENT_SET_NO = 999
REV_AT_EPOCH   = 93904
BSTAR          = .27229933E-3
MEAN_MOTION_DOT = .4596E-4
MEAN_MOTION_DDOT = 0

CCSDS_OMM_VERS = 2.0
CREATION_DATE  = 
ORIGINATOR     = 

OBJECT_NAME    = SL-14 R/B
OBJECT_ID      = 1990-010B
CENTER_NAME    = EARTH
REF_FRAME      = TEME
TIME_SYSTEM    = UTC
MEAN_ELEMENT_THEORY = SGP/SGP4

EPOCH          = 2026-02-16T04:06:41.625504
MEAN_MOTION    = 14.83550220
ECCENTRICITY   = .00202445
INCLINATION    = 82.5016
RA_OF_ASC_NODE = 287.6040
ARG_OF_PERICENTER = 15.2057
MEAN_ANOMALY   = 344.9762

EPHEMERIS_TYPE = 0
CLASSIFICATION_TYPE = U
NORAD_CAT_ID   = 20466
ELEMENT_SET_NO = 999
REV_AT_EPOCH   = 92529
BSTAR          = .52341017E-4
MEAN_MOTION_DOT = .456E-5
MEAN_MOTION_DDOT = 0

CCSDS_OMM_VERS = 2.0
CREATION_DATE  = 
ORIGINATOR     = 

OBJECT_NAME    = SL-14 R/B
OBJECT_ID      = 1990-018B
CENTER_NAME    = EARTH
REF_FRAME      = TEME
TIME_SYSTEM    = UTC
MEAN_ELEMENT_THEORY = SGP/SGP4

EPOCH          = 2026-02-16T13:45:46.897344
MEAN_MOTION    = 14.82121336
ECCENTRICITY   = .00168391
INCLINATION    = 82.5179
RA_OF_ASC_NODE = 242.8304
ARG_OF_PERICENTER = 156.8815
MEAN_ANOMALY   = 203.3161

EPHEMERIS_TYPE = 0
CLASSIFICATION_TYPE = U
NORAD_CAT_ID   = 20511
ELEMENT_SET_NO = 999
REV_AT_EPOCH   = 91945
BSTAR          = .52981592E-4
MEAN_MOTION_DOT = .446E-5
MEAN_MOTION_DDOT = 0

CCSDS_OMM_VERS = 2.0
CREATION_DATE  = 
ORIGINATOR     = 

OBJECT_NAME    = HST
OBJECT_ID      = 1990-037B
CENTER_NAME    = EARTH
REF_FRAME      = TEME
TIME_SYSTEM    = UTC
MEAN_ELEMENT_THEORY = SGP/SGP4

EPOCH          = 2026-02-16T11:21:03.134880
MEAN_MOTION    = 15.29132781
ECCENTRICITY   = .00012478
INCLINATION    = 28.4675
RA_OF_ASC_NODE = 184.6958
ARG_OF_PERICENTER = 228.1210
MEAN_ANOMALY   = 131.9279

EPHEMERIS_TYPE = 0
CLASSIFICATION_TYPE = U
NORAD_CAT_ID   = 20580
ELEMENT_SET_NO = 999
REV_AT_EPOCH   = 77006
BSTAR          = .27082688E-3
MEAN_MOTION_DOT = .8112E-4
MEAN_MOTION_DDOT = 0

CCSDS_OMM_VERS = 2.0
CREATION_DATE  = 
ORIGINATOR     = 

OBJECT_NAME    = SL-16 R/B
OBJECT_ID      = 1990-046B
CENTER_NAME    = EARTH
REF_FRAME      = TEME
TIME_SYSTEM    = UTC
MEAN_ELEMENT_THEORY = SGP/SGP4

EPOCH          = 2026-02-16T06:39:44.914752
MEAN_MOTION    = 14.15011269
ECCENTRICITY   = .0015191
INCLINATION    = 71.0014
RA_OF_ASC_NODE = 342.8812
ARG_OF_PERICENTER = 329.5121
MEAN_ANOMALY   = 30.5117

EPHEMERIS_TYPE = 0
CLASSIFICATION_TYPE = U
NORAD_CAT_ID   = 20625
ELEMENT_SET_NO = 999
REV_AT_EPOCH   = 84536
BSTAR          = .19319E-3
MEAN_MOTION_DOT = .327E-5
MEAN_MOTION_DDOT = 0

CCSDS_OMM_VERS = 2.0
CREATION_DATE  = 
ORIGINATOR     = 

OBJECT_NAME    = COSMOS 2084
OBJECT_ID      = 1990-055A
CENTER_NAME    = EARTH
REF_FRAME      = TEME
TIME_SYSTEM    = UTC
MEAN_ELEMENT_THEORY = SGP/SGP4

EPOCH          = 2026-02-16T09:38:39.798528
MEAN_MOTION    = 15.05507977
ECCENTRICITY   = .00203387
INCLINATION    = 62.7898
RA_OF_ASC_NODE = 48.1746
ARG_OF_PERICENTER = 185.3105
MEAN_ANOMALY   = 174.7783

EPHEMERIS_TYPE = 0
CLASSIFICATION_TYPE = U
NORAD_CAT_ID   = 20663
ELEMENT_SET_NO = 999
REV_AT_EPOCH   = 93311
BSTAR          = .22338443E-3
MEAN_MOTION_DOT = .304E-4
MEAN_MOTION_DDOT = 0

CCSDS_OMM_VERS = 2.0
CREATION_DATE  = 
ORIGINATOR     = 

OBJECT_NAME    = SL-6 R/B(2)
OBJECT_ID      = 1990-055D
CENTER_NAME    = EARTH
REF_FRAME      = TEME
TIME_SYSTEM    = UTC
MEAN_ELEMENT_THEORY = SGP/SGP4

EPOCH          = 2026-02-16T03:44:48.563232
MEAN_MOTION    = 15.03485742
ECCENTRICITY   = .00215123
INCLINATION    = 62.7846
RA_OF_ASC_NODE = 327.0729
ARG_OF_PERICENTER = 341.1837
MEAN_ANOMALY   = 18.8465

EPHEMERIS_TYPE = 0
CLASSIFICATION_TYPE = U
NORAD_CAT_ID   = 20666
ELEMENT_SET_NO = 999
REV_AT_EPOCH   = 93495
BSTAR          = .21079735E-3
MEAN_MOTION_DOT = .2701E-4
MEAN_MOTION_DDOT = 0

CCSDS_OMM_VERS = 2.0
CREATION_DATE  = 
ORIGINATOR     = 

OBJECT_NAME    = SL-8 R/B
OBJECT_ID      = 1990-078B
CENTER_NAME    = EARTH
REF_FRAME      = TEME
TIME_SYSTEM    = UTC
MEAN_ELEMENT_THEORY = SGP/SGP4

EPOCH          = 2026-02-16T14:30:58.525920
MEAN_MOTION    = 14.88346653
ECCENTRICITY   = .03662664
INCLINATION    = 82.9009
RA_OF_ASC_NODE = 270.2634
ARG_OF_PERICENTER = 84.6710
MEAN_ANOMALY   = 279.6177

EPHEMERIS_TYPE = 0
CLASSIFICATION_TYPE = U
NORAD_CAT_ID   = 20775
ELEMENT_SET_NO = 999
REV_AT_EPOCH   = 80616
BSTAR          = .4612196E-3
MEAN_MOTION_DOT = .15712E-3
MEAN_MOTION_DDOT = 0

CCSDS_OMM_VERS = 2.0
CREATION_DATE  = 
ORIGINATOR     = 

OBJECT_NAME    = SL-8 R/B
OBJECT_ID      = 1991-006B
CENTER_NAME    = EARTH
REF_FRAME      = TEME
TIME_SYSTEM    = UTC
MEAN_ELEMENT_THEORY = SGP/SGP4

EPOCH          = 2026-02-16T11:43:03.429696
MEAN_MOTION    = 13.77492330
ECCENTRICITY   = .00237683
INCLINATION    = 82.9444
RA_OF_ASC_NODE = 185.8070
ARG_OF_PERICENTER = 94.8477
MEAN_ANOMALY   = 332.1053

EPHEMERIS_TYPE = 0
CLASSIFICATION_TYPE = U
NORAD_CAT_ID   = 21088
ELEMENT_SET_NO = 999
REV_AT_EPOCH   = 76115
BSTAR          = .965454E-6
MEAN_MOTION_DOT = .17E-6
MEAN_MOTION_DDOT = 0

CCSDS_OMM_VERS = 2.0
CREATION_DATE  = 
ORIGINATOR     = 

OBJECT_NAME    = OKEAN-3
OBJECT_ID      = 1991-039A
CENTER_NAME    = EARTH
REF_FRAME      = TEME
TIME_SYSTEM    = UTC
MEAN_ELEMENT_THEORY = SGP/SGP4

EPOCH          = 2026-02-16T07:59:07.617120
MEAN_MOTION    = 15.04635741
ECCENTRICITY   = .00159658
INCLINATION    = 82.5193
RA_OF_ASC_NODE = 357.5263
ARG_OF_PERICENTER = 47.3108
MEAN_ANOMALY   = 312.9460

EPHEMERIS_TYPE = 0
CLASSIFICATION_TYPE = U
NORAD_CAT_ID   = 21397
ELEMENT_SET_NO = 999
REV_AT_EPOCH   = 86182
BSTAR          = .35123251E-3
MEAN_MOTION_DOT = .4975E-4
MEAN_MOTION_DDOT = 0

CCSDS_OMM_VERS = 2.0
CREATION_DATE  = 
ORIGINATOR     = 

OBJECT_NAME    = COSMOS 2151
OBJECT_ID      = 1991-042A
CENTER_NAME    = EARTH
REF_FRAME      = TEME
TIME_SYSTEM    = UTC
MEAN_ELEMENT_THEORY = SGP/SGP4

EPOCH          = 2026-02-16T14:30:13.513248
MEAN_MOTION    = 15.00022698
ECCENTRICITY   = .00137933
INCLINATION    = 82.4951
RA_OF_ASC_NODE = 104.0180
ARG_OF_PERICENTER = 127.0740
MEAN_ANOMALY   = 233.1748

EPHEMERIS_TYPE = 0
CLASSIFICATION_TYPE = U
NORAD_CAT_ID   = 21422
ELEMENT_SET_NO = 999
REV_AT_EPOCH   = 86003
BSTAR          = .12610048E-3
MEAN_MOTION_DOT = .1598E-4
MEAN_MOTION_DDOT = 0

