DELTA 2 R/B(1)          
1 20453U 90008B   26047.05097093  .00071954  00000+0  92905-3 0  9996
2 20453  35.6054 316.5284 0090516  56.5081 304.4266 15.52946842922761
COSMOS 2058             
1 20465U 90010A   26047.52597869  .00004596  00000+0  27230-3 0  9997
2 20465  82.4654  68.2776 0011224  55.0859 305.1424 15.11122327939045
SL-14 R/B               
1 20466U 90010B   26047.17131511  .00000456  00000+0  52341-4 0  9990
2 20466  82.5016 287.6040 0020244  15.2057 344.9762 14.83550220925293
SL-14 R/B               
1 20511U 90018B   26047.57345946  .00000446  00000+0  52982-4 0  9992
2 20511  82.5179 242.8304 0016839 156.8815 203.3161 14.82121336919452
HST                     
1 20580U 90037B   26047.47295295  .00008112  00000+0  27083-3 0  9990
2 20580  28.4675 184.6958 0001247 228.1210 131.9279 15.29132781770061
SL-16 R/B               
1 20625U 90046B   26047.27760318  .00000327  00000+0  19319-3 0  9994
2 20625  71.0014 342.8812 0015191 329.5121  30.5117 14.15011269845361
COSMOS 2084             
1 20663U 90055A   26047.40184952  .00003040  00000+0  22338-3 0  9995
2 20663  62.7898  48.1746 0020338 185.3105 174.7783 15.05507977933118
SL-6 R/B(2)             
1 20666U 90055D   26047.15611763  .00002701  00000+0  21080-3 0  9991
2 20666  62.7846 327.0729 0021512 341.1837  18.8465 15.03485742934954
SL-8 R/B                
1 20775U 90078B   26047.60484405  .00015712  00000+0  46122-3 0  9998
2 20775  82.9009 270.2634 0366266  84.6710 279.6177 14.88346653806168
SL-8 R/B                
1 21088U 91006B   26047.48823414  .00000017  00000+0  96545-6 0  9990
2 21088  82.9444 185.8070 0023768  94.8477 332.1053 13.77492330761152
OKEAN-3                 
1 21397U 91039A   26047.33272705  .00004975  00000+0  35123-3 0  9993
2 21397  82.5193 357.5263 0015965  47.3108 312.9460 15.04635741861828
COSMOS 2151             
1 21422U 91042A   26047.60432307  .00001598  00000+0  12610-3 0  9996
2 21422  82.4951 104.0180 0013793 127.0740 233.1748 15.00022698860038
